IRIDIUM 166             
1 43570U 18061B   24245.49423443  .00000986  00000+0  34506-3 0  9998
2 43570  86.4012 329.9315 0001994  92.4399 267.7025 14.34223473319705
IRIDIUM 158             
1 43571U 18061C   24245.18344868  .00000737  00000+0  25599-3 0  9994
2 43571  86.4014 330.0708 0002023  96.3332 263.8094 14.34222414319630
IRIDIUM 165             
1 43572U 18061D   24244.65067448  .00000747  00000+0  25968-3 0  9993
2 43572  86.4018 330.3272 0002074  97.1534 262.9897 14.34217831319574
IRIDIUM 155             
1 43573U 18061E   24245.51960567  .00000388  00000+0  13151-3 0  9996
2 43573  86.4011 329.8660 0001989  92.6216 267.5208 14.34221440319672
IRIDIUM 154             
1 43574U 18061F   24244.52382272  .00000178  00000+0  56346-4 0  9999
2 43574  86.4011 330.3829 0002502  93.3149 266.8333 14.34218804319572
IRIDIUM 163             
1 43575U 18061G   24244.64433015  .00000450  00000+0  15344-3 0  9990
2 43575  86.4009 330.2683 0002232  92.0803 268.0649 14.34220978319568
IRIDIUM 156             
1 43576U 18061H   24245.52595123  .00000794  00000+0  27656-3 0  9998
2 43576  86.4012 329.9069 0002026  99.7561 260.3864 14.34217285319675
IRIDIUM 164             
1 43577U 18061J   24245.29761507  .00001023  00000+0  35832-3 0  9995
2 43577  86.4012 330.0321 0002410  98.6612 261.4857 14.34223786319691
